; MultiCNC public test model - CC0-1.0
; Demonstracao de duas camadas, como cube_marlin.gcode.
; Extrusao estimada: filamento 1.75 mm, linha 0.45 mm, camada 0.20 mm.
; Revise o perfil e os limites da sua impressora antes de executar.
G21
G90
M82
G28
M104 S200
M109 S200
G92 E0
; Camada 1
G1 Z0.20 F1200
G1 X40.000 Y30.000 F6000
G1 X39.952 Y30.980 E0.03672 F1800
G1 X39.808 Y31.951 E0.07344 F1800
G1 X39.569 Y32.903 E0.11016 F1800
G1 X39.239 Y33.827 E0.14688 F1800
G1 X38.819 Y34.714 E0.18360 F1800
G1 X38.315 Y35.556 E0.22032 F1800
G1 X37.730 Y36.344 E0.25704 F1800
G1 X37.071 Y37.071 E0.29376 F1800
G1 X36.344 Y37.730 E0.33048 F1800
G1 X35.556 Y38.315 E0.36720 F1800
G1 X34.714 Y38.819 E0.40392 F1800
G1 X33.827 Y39.239 E0.44064 F1800
G1 X32.903 Y39.569 E0.47736 F1800
G1 X31.951 Y39.808 E0.51408 F1800
G1 X30.980 Y39.952 E0.55080 F1800
G1 X30.000 Y40.000 E0.58752 F1800
G1 X29.020 Y39.952 E0.62424 F1800
G1 X28.049 Y39.808 E0.66096 F1800
G1 X27.097 Y39.569 E0.69768 F1800
G1 X26.173 Y39.239 E0.73440 F1800
G1 X25.286 Y38.819 E0.77112 F1800
G1 X24.444 Y38.315 E0.80784 F1800
G1 X23.656 Y37.730 E0.84456 F1800
G1 X22.929 Y37.071 E0.88128 F1800
G1 X22.270 Y36.344 E0.91800 F1800
G1 X21.685 Y35.556 E0.95472 F1800
G1 X21.181 Y34.714 E0.99144 F1800
G1 X20.761 Y33.827 E1.02816 F1800
G1 X20.431 Y32.903 E1.06488 F1800
G1 X20.192 Y31.951 E1.10160 F1800
G1 X20.048 Y30.980 E1.13832 F1800
G1 X20.000 Y30.000 E1.17504 F1800
G1 X20.048 Y29.020 E1.21176 F1800
G1 X20.192 Y28.049 E1.24848 F1800
G1 X20.431 Y27.097 E1.28520 F1800
G1 X20.761 Y26.173 E1.32192 F1800
G1 X21.181 Y25.286 E1.35864 F1800
G1 X21.685 Y24.444 E1.39536 F1800
G1 X22.270 Y23.656 E1.43208 F1800
G1 X22.929 Y22.929 E1.46880 F1800
G1 X23.656 Y22.270 E1.50552 F1800
G1 X24.444 Y21.685 E1.54224 F1800
G1 X25.286 Y21.181 E1.57896 F1800
G1 X26.173 Y20.761 E1.61568 F1800
G1 X27.097 Y20.431 E1.65240 F1800
G1 X28.049 Y20.192 E1.68912 F1800
G1 X29.020 Y20.048 E1.72584 F1800
G1 X30.000 Y20.000 E1.76256 F1800
G1 X30.980 Y20.048 E1.79928 F1800
G1 X31.951 Y20.192 E1.83600 F1800
G1 X32.903 Y20.431 E1.87272 F1800
G1 X33.827 Y20.761 E1.90944 F1800
G1 X34.714 Y21.181 E1.94616 F1800
G1 X35.556 Y21.685 E1.98288 F1800
G1 X36.344 Y22.270 E2.01960 F1800
G1 X37.071 Y22.929 E2.05632 F1800
G1 X37.730 Y23.656 E2.09304 F1800
G1 X38.315 Y24.444 E2.12976 F1800
G1 X38.819 Y25.286 E2.16648 F1800
G1 X39.239 Y26.173 E2.20320 F1800
G1 X39.569 Y27.097 E2.23992 F1800
G1 X39.808 Y28.049 E2.27664 F1800
G1 X39.952 Y29.020 E2.31336 F1800
G1 X40.000 Y30.000 E2.35008 F1800
G1 X36.000 Y30.000 F6000
G1 X35.971 Y30.588 E2.37211 F1800
G1 X35.885 Y31.171 E2.39414 F1800
G1 X35.742 Y31.742 E2.41617 F1800
G1 X35.543 Y32.296 E2.43820 F1800
G1 X35.292 Y32.828 E2.46024 F1800
G1 X34.989 Y33.333 E2.48227 F1800
G1 X34.638 Y33.806 E2.50430 F1800
G1 X34.243 Y34.243 E2.52633 F1800
G1 X33.806 Y34.638 E2.54836 F1800
G1 X33.333 Y34.989 E2.57040 F1800
G1 X32.828 Y35.292 E2.59243 F1800
G1 X32.296 Y35.543 E2.61446 F1800
G1 X31.742 Y35.742 E2.63649 F1800
G1 X31.171 Y35.885 E2.65852 F1800
G1 X30.588 Y35.971 E2.68056 F1800
G1 X30.000 Y36.000 E2.70259 F1800
G1 X29.412 Y35.971 E2.72462 F1800
G1 X28.829 Y35.885 E2.74665 F1800
G1 X28.258 Y35.742 E2.76868 F1800
G1 X27.704 Y35.543 E2.79072 F1800
G1 X27.172 Y35.292 E2.81275 F1800
G1 X26.667 Y34.989 E2.83478 F1800
G1 X26.194 Y34.638 E2.85681 F1800
G1 X25.757 Y34.243 E2.87884 F1800
G1 X25.362 Y33.806 E2.90088 F1800
G1 X25.011 Y33.333 E2.92291 F1800
G1 X24.708 Y32.828 E2.94494 F1800
G1 X24.457 Y32.296 E2.96697 F1800
G1 X24.258 Y31.742 E2.98900 F1800
G1 X24.115 Y31.171 E3.01104 F1800
G1 X24.029 Y30.588 E3.03307 F1800
G1 X24.000 Y30.000 E3.05510 F1800
G1 X24.029 Y29.412 E3.07713 F1800
G1 X24.115 Y28.829 E3.09916 F1800
G1 X24.258 Y28.258 E3.12120 F1800
G1 X24.457 Y27.704 E3.14323 F1800
G1 X24.708 Y27.172 E3.16526 F1800
G1 X25.011 Y26.667 E3.18729 F1800
G1 X25.362 Y26.194 E3.20932 F1800
G1 X25.757 Y25.757 E3.23135 F1800
G1 X26.194 Y25.362 E3.25339 F1800
G1 X26.667 Y25.011 E3.27542 F1800
G1 X27.172 Y24.708 E3.29745 F1800
G1 X27.704 Y24.457 E3.31948 F1800
G1 X28.258 Y24.258 E3.34151 F1800
G1 X28.829 Y24.115 E3.36355 F1800
G1 X29.412 Y24.029 E3.38558 F1800
G1 X30.000 Y24.000 E3.40761 F1800
G1 X30.588 Y24.029 E3.42964 F1800
G1 X31.171 Y24.115 E3.45167 F1800
G1 X31.742 Y24.258 E3.47371 F1800
G1 X32.296 Y24.457 E3.49574 F1800
G1 X32.828 Y24.708 E3.51777 F1800
G1 X33.333 Y25.011 E3.53980 F1800
G1 X33.806 Y25.362 E3.56183 F1800
G1 X34.243 Y25.757 E3.58387 F1800
G1 X34.638 Y26.194 E3.60590 F1800
G1 X34.989 Y26.667 E3.62793 F1800
G1 X35.292 Y27.172 E3.64996 F1800
G1 X35.543 Y27.704 E3.67199 F1800
G1 X35.742 Y28.258 E3.69403 F1800
G1 X35.885 Y28.829 E3.71606 F1800
G1 X35.971 Y29.412 E3.73809 F1800
G1 X36.000 Y30.000 E3.76012 F1800
; Camada 2
G1 Z0.40 F1200
G1 X40.000 Y30.000 F6000
G1 X39.952 Y30.980 E3.79684 F1800
G1 X39.808 Y31.951 E3.83356 F1800
G1 X39.569 Y32.903 E3.87028 F1800
G1 X39.239 Y33.827 E3.90700 F1800
G1 X38.819 Y34.714 E3.94372 F1800
G1 X38.315 Y35.556 E3.98044 F1800
G1 X37.730 Y36.344 E4.01716 F1800
G1 X37.071 Y37.071 E4.05388 F1800
G1 X36.344 Y37.730 E4.09060 F1800
G1 X35.556 Y38.315 E4.12732 F1800
G1 X34.714 Y38.819 E4.16404 F1800
G1 X33.827 Y39.239 E4.20076 F1800
G1 X32.903 Y39.569 E4.23748 F1800
G1 X31.951 Y39.808 E4.27420 F1800
G1 X30.980 Y39.952 E4.31092 F1800
G1 X30.000 Y40.000 E4.34764 F1800
G1 X29.020 Y39.952 E4.38436 F1800
G1 X28.049 Y39.808 E4.42108 F1800
G1 X27.097 Y39.569 E4.45780 F1800
G1 X26.173 Y39.239 E4.49452 F1800
G1 X25.286 Y38.819 E4.53124 F1800
G1 X24.444 Y38.315 E4.56796 F1800
G1 X23.656 Y37.730 E4.60468 F1800
G1 X22.929 Y37.071 E4.64140 F1800
G1 X22.270 Y36.344 E4.67812 F1800
G1 X21.685 Y35.556 E4.71484 F1800
G1 X21.181 Y34.714 E4.75156 F1800
G1 X20.761 Y33.827 E4.78828 F1800
G1 X20.431 Y32.903 E4.82500 F1800
G1 X20.192 Y31.951 E4.86172 F1800
G1 X20.048 Y30.980 E4.89844 F1800
G1 X20.000 Y30.000 E4.93516 F1800
G1 X20.048 Y29.020 E4.97188 F1800
G1 X20.192 Y28.049 E5.00860 F1800
G1 X20.431 Y27.097 E5.04532 F1800
G1 X20.761 Y26.173 E5.08204 F1800
G1 X21.181 Y25.286 E5.11876 F1800
G1 X21.685 Y24.444 E5.15548 F1800
G1 X22.270 Y23.656 E5.19220 F1800
G1 X22.929 Y22.929 E5.22892 F1800
G1 X23.656 Y22.270 E5.26564 F1800
G1 X24.444 Y21.685 E5.30236 F1800
G1 X25.286 Y21.181 E5.33908 F1800
G1 X26.173 Y20.761 E5.37580 F1800
G1 X27.097 Y20.431 E5.41252 F1800
G1 X28.049 Y20.192 E5.44924 F1800
G1 X29.020 Y20.048 E5.48596 F1800
G1 X30.000 Y20.000 E5.52268 F1800
G1 X30.980 Y20.048 E5.55940 F1800
G1 X31.951 Y20.192 E5.59612 F1800
G1 X32.903 Y20.431 E5.63284 F1800
G1 X33.827 Y20.761 E5.66956 F1800
G1 X34.714 Y21.181 E5.70628 F1800
G1 X35.556 Y21.685 E5.74300 F1800
G1 X36.344 Y22.270 E5.77972 F1800
G1 X37.071 Y22.929 E5.81644 F1800
G1 X37.730 Y23.656 E5.85316 F1800
G1 X38.315 Y24.444 E5.88988 F1800
G1 X38.819 Y25.286 E5.92660 F1800
G1 X39.239 Y26.173 E5.96332 F1800
G1 X39.569 Y27.097 E6.00004 F1800
G1 X39.808 Y28.049 E6.03676 F1800
G1 X39.952 Y29.020 E6.07348 F1800
G1 X40.000 Y30.000 E6.11020 F1800
G1 X36.000 Y30.000 F6000
G1 X35.971 Y30.588 E6.13223 F1800
G1 X35.885 Y31.171 E6.15426 F1800
G1 X35.742 Y31.742 E6.17629 F1800
G1 X35.543 Y32.296 E6.19833 F1800
G1 X35.292 Y32.828 E6.22036 F1800
G1 X34.989 Y33.333 E6.24239 F1800
G1 X34.638 Y33.806 E6.26442 F1800
G1 X34.243 Y34.243 E6.28645 F1800
G1 X33.806 Y34.638 E6.30849 F1800
G1 X33.333 Y34.989 E6.33052 F1800
G1 X32.828 Y35.292 E6.35255 F1800
G1 X32.296 Y35.543 E6.37458 F1800
G1 X31.742 Y35.742 E6.39661 F1800
G1 X31.171 Y35.885 E6.41865 F1800
G1 X30.588 Y35.971 E6.44068 F1800
G1 X30.000 Y36.000 E6.46271 F1800
G1 X29.412 Y35.971 E6.48474 F1800
G1 X28.829 Y35.885 E6.50677 F1800
G1 X28.258 Y35.742 E6.52881 F1800
G1 X27.704 Y35.543 E6.55084 F1800
G1 X27.172 Y35.292 E6.57287 F1800
G1 X26.667 Y34.989 E6.59490 F1800
G1 X26.194 Y34.638 E6.61693 F1800
G1 X25.757 Y34.243 E6.63897 F1800
G1 X25.362 Y33.806 E6.66100 F1800
G1 X25.011 Y33.333 E6.68303 F1800
G1 X24.708 Y32.828 E6.70506 F1800
G1 X24.457 Y32.296 E6.72709 F1800
G1 X24.258 Y31.742 E6.74913 F1800
G1 X24.115 Y31.171 E6.77116 F1800
G1 X24.029 Y30.588 E6.79319 F1800
G1 X24.000 Y30.000 E6.81522 F1800
G1 X24.029 Y29.412 E6.83725 F1800
G1 X24.115 Y28.829 E6.85929 F1800
G1 X24.258 Y28.258 E6.88132 F1800
G1 X24.457 Y27.704 E6.90335 F1800
G1 X24.708 Y27.172 E6.92538 F1800
G1 X25.011 Y26.667 E6.94741 F1800
G1 X25.362 Y26.194 E6.96945 F1800
G1 X25.757 Y25.757 E6.99148 F1800
G1 X26.194 Y25.362 E7.01351 F1800
G1 X26.667 Y25.011 E7.03554 F1800
G1 X27.172 Y24.708 E7.05757 F1800
G1 X27.704 Y24.457 E7.07961 F1800
G1 X28.258 Y24.258 E7.10164 F1800
G1 X28.829 Y24.115 E7.12367 F1800
G1 X29.412 Y24.029 E7.14570 F1800
G1 X30.000 Y24.000 E7.16773 F1800
G1 X30.588 Y24.029 E7.18976 F1800
G1 X31.171 Y24.115 E7.21180 F1800
G1 X31.742 Y24.258 E7.23383 F1800
G1 X32.296 Y24.457 E7.25586 F1800
G1 X32.828 Y24.708 E7.27789 F1800
G1 X33.333 Y25.011 E7.29992 F1800
G1 X33.806 Y25.362 E7.32196 F1800
G1 X34.243 Y25.757 E7.34399 F1800
G1 X34.638 Y26.194 E7.36602 F1800
G1 X34.989 Y26.667 E7.38805 F1800
G1 X35.292 Y27.172 E7.41008 F1800
G1 X35.543 Y27.704 E7.43212 F1800
G1 X35.742 Y28.258 E7.45415 F1800
G1 X35.885 Y28.829 E7.47618 F1800
G1 X35.971 Y29.412 E7.49821 F1800
G1 X36.000 Y30.000 E7.52024 F1800
M104 S0
M84
