; MultiCNC public test model - CC0-1.0
; Demonstracao de duas camadas, como cube_marlin.gcode.
; Extrusao estimada: filamento 1.75 mm, linha 0.45 mm, camada 0.20 mm.
; Revise o perfil e os limites da sua impressora antes de executar.
G21
G90
M82
G28
M104 S200
M109 S200
G92 E0
; Camada 1
G1 Z0.20 F1200
G1 X20.000 Y20.000 F6000
G1 X50.000 Y20.000 E1.12253 F1800
G1 X50.000 Y25.000 E1.30962 F1800
G1 X25.000 Y25.000 E2.24506 F1800
G1 X25.000 Y50.000 E3.18050 F1800
G1 X20.000 Y50.000 E3.36759 F1800
G1 X20.000 Y20.000 E4.49012 F1800
; Camada 2
G1 Z0.40 F1200
G1 X20.000 Y20.000 F6000
G1 X50.000 Y20.000 E5.61265 F1800
G1 X50.000 Y25.000 E5.79974 F1800
G1 X25.000 Y25.000 E6.73518 F1800
G1 X25.000 Y50.000 E7.67062 F1800
G1 X20.000 Y50.000 E7.85771 F1800
G1 X20.000 Y20.000 E8.98024 F1800
M104 S0
M84
